1 90000           19337.16666667 -.00000174  00000-0 -31822-3 0 00002
2 90000 053.7131 072.4712 0008053 268.9415 076.8850 13.39839707000010
1 90001           19337.16666667 -.00000150  00000-0 -27586-3 0 00009
2 90001 053.7131 072.4712 0008052 268.9435 084.0829 13.39839694000014
1 90002           19337.16666667 -.00000117  00000-0 -21511-3 0 00005
2 90002 053.7131 072.4712 0008051 268.9430 091.2835 13.39839668000017
1 90003           19337.16666667 -.00000077  00000-0 -14120-3 0 00009
2 90003 053.7131 072.4712 0008051 268.9405 098.4860 13.39839633000019
1 90004           19337.16666667 -.00000032  00000-0 -58825-4 0 00002
2 90004 053.7131 072.4712 0008051 268.9368 105.6897 13.39839589000019
1 90005           19337.16666667  .00000013  00000-0  24651-4 0 00000
2 90005 053.7131 072.4712 0008051 268.9326 112.8940 13.39839544000014
1 90006           19337.16666667  .00000057  00000-0  10468-3 0 00009
2 90006 053.7131 072.4712 0008051 268.9290 120.0976 13.39839497000012
1 90007           19337.16666667  .00000096  00000-0  17552-3 0 00004
2 90007 053.7131 072.4712 0008052 268.9269 127.2997 13.39839453000014
1 90008           19337.16666667  .00000126  00000-0  23192-3 0 00006
2 90008 053.7131 072.4712 0008052 268.9270 134.4997 13.39839414000014
1 90009           19337.16666667  .00000147  00000-0  26966-3 0 00002
2 90009 053.7131 072.4712 0008053 268.9296 141.6971 13.39839384000012
1 90010           19337.16666667  .00000156  00000-0  28583-3 0 00001
2 90010 053.7131 072.4712 0008054 268.9346 148.8921 13.39839366000015
1 90011           19337.16666667  .00000152  00000-0  27894-3 0 00002
2 90011 053.7131 072.4712 0008054 268.9416 156.0852 13.39839360000012
1 90012           19337.16666667  .00000136  00000-0  24896-3 0 00004
2 90012 053.7131 072.4712 0008054 268.9498 163.2770 13.39839367000019
1 90013           19337.16666667  .00000108  00000-0  19741-3 0 00007
2 90013 053.7131 072.4712 0008053 268.9582 170.4686 13.39839388000012
1 90014           19337.16666667  .00000069  00000-0  12722-3 0 00006
2 90014 053.7131 072.4712 0008053 268.9656 177.6611 13.39839423000012
1 90015           19337.16666667  .00000023  00000-0  42586-4 0 00009
2 90015 053.7131 072.4712 0008051 268.9709 184.8557 13.39839468000018
1 90016           19337.16666667 -.00000028  00000-0 -51374-4 0 00002
2 90016 053.7131 072.4712 0008050 268.9735 192.0532 13.39839523000013
1 90017           19337.16666667 -.00000081  00000-0 -14889-3 0 00001
2 90017 053.7131 072.4712 0008049 268.9727 199.2539 13.39839583000015
1 90018           19337.16666667 -.00000133  00000-0 -24385-3 0 00002
2 90018 053.7131 072.4712 0008047 268.9687 206.4578 13.39839646000013
1 90019           19337.16666667 -.00000180  00000-0 -33020-3 0 00001
2 90019 053.7131 072.4712 0008046 268.9619 213.6646 13.39839708000013
1 90020           19337.16666667 -.00000219  00000-0 -40238-3 0 00005
2 90020 053.7131 072.4712 0008045 268.9530 220.8734 13.39839764000016
1 90021           19337.16666667 -.00000249  00000-0 -45573-3 0 00006
2 90021 053.7131 072.4712 0008045 268.9431 228.0832 13.39839813000011
1 90022           19337.16666667 -.00000265  00000-0 -48663-3 0 00008
2 90022 053.7131 072.4712 0008045 268.9334 235.2929 13.39839851000013
1 90023           19337.16666667 -.00000269  00000-0 -49265-3 0 00002
2 90023 053.7131 072.4712 0008046 268.9250 242.5012 13.39839876000013
1 90024           19337.16666667 -.00000258  00000-0 -47274-3 0 00009
2 90024 053.7131 072.4712 0008047 268.9190 249.7072 13.39839886000014
1 90025           19337.16666667 -.00000233  00000-0 -42762-3 0 00000
2 90025 053.7131 072.4712 0008048 268.9160 256.9103 13.39839880000012
1 90026           19337.16666667 -.00000198  00000-0 -36215-3 0 00007
2 90026 053.7131 072.4712 0008049 268.9158 264.1104 13.39839862000013
1 90027           19337.16666667 -.00000151  00000-0 -27658-3 0 00008
2 90027 053.7131 072.4712 0008050 268.9191 271.3072 13.39839828000019
1 90028           19337.16666667 -.00000095  00000-0 -17468-3 0 00004
2 90028 053.7131 072.4712 0008051 268.9250 278.5013 13.39839780000018
1 90029           19337.16666667 -.00000037  00000-0 -67503-4 0 00007
2 90029 053.7131 072.4712 0008051 268.9323 285.6940 13.39839726000018
1 90030           19337.16666667  .00000023  00000-0  42000-4 0 00007
2 90030 053.7131 072.4712 0008051 268.9401 292.8862 13.39839666000013
1 90031           19337.16666667  .00000081  00000-0  14789-3 0 00004
2 90031 053.7131 072.4712 0008051 268.9472 300.0792 13.39839603000017
1 90032           19337.16666667  .00000133  00000-0  24409-3 0 00003
2 90032 053.7131 072.4712 0008050 268.9524 307.2741 13.39839540000018
1 90033           19337.16666667  .00000177  00000-0  32493-3 0 00004
2 90033 053.7131 072.4712 0008049 268.9549 314.4716 13.39839482000011
1 90034           19337.16666667  .00000210  00000-0  38581-3 0 00007
2 90034 053.7131 072.4712 0008048 268.9541 321.6724 13.39839431000016
1 90035           19337.16666667  .00000231  00000-0  42348-3 0 00007
2 90035 053.7131 072.4712 0008046 268.9502 328.8764 13.39839391000010
1 90036           19337.16666667  .00000238  00000-0  43612-3 0 00000
2 90036 053.7131 072.4712 0008046 268.9433 336.0833 13.39839363000011
1 90037           19337.16666667  .00000231  00000-0  42334-3 0 00004
2 90037 053.7131 072.4712 0008045 268.9343 343.2923 13.39839348000014
1 90038           19337.16666667  .00000211  00000-0  38623-3 0 00009
2 90038 053.7131 072.4712 0008045 268.9243 350.5024 13.39839347000016
1 90039           19337.16666667  .00000179  00000-0  32735-3 0 00001
2 90039 053.7131 072.4712 0008046 268.9145 357.7122 13.39839360000012
1 90040           19337.16666667  .00000137  00000-0  25064-3 0 00004
2 90040 053.7131 072.4712 0008046 268.9061 004.9206 13.39839386000013
1 90041           19337.16666667  .00000088  00000-0  16113-3 0 00005
2 90041 053.7131 072.4712 0008048 268.9001 012.1266 13.39839421000017
1 90042           19337.16666667  .00000035  00000-0  64588-4 0 00008
2 90042 053.7131 072.4712 0008049 268.8972 019.3295 13.39839465000014
1 90043           19337.16666667 -.00000018  00000-0 -32818-4 0 00003
2 90043 053.7131 072.4712 0008050 268.8975 026.5291 13.39839512000019
1 90044           19337.16666667 -.00000068  00000-0 -12495-3 0 00007
2 90044 053.7131 072.4712 0008052 268.9010 033.7257 13.39839561000019
1 90045           19337.16666667 -.00000112  00000-0 -20614-3 0 00000
2 90045 053.7131 072.4712 0008053 268.9069 040.9197 13.39839607000019
1 90046           19337.16666667 -.00000148  00000-0 -27153-3 0 00005
2 90046 053.7131 072.4712 0008054 268.9145 048.1120 13.39839647000016
1 90047           19337.16666667 -.00000173  00000-0 -31733-3 0 00003
2 90047 053.7131 072.4712 0008054 268.9228 055.3037 13.39839679000011
1 90048           19337.16666667 -.00000186  00000-0 -34092-3 0 00009
2 90048 053.7131 072.4712 0008054 268.9307 062.4958 13.39839701000017
1 90049           19337.16666667 -.00000186  00000-0 -34108-3 0 00008
2 90049 053.7131 072.4712 0008053 268.9371 069.6893 13.39839711000016
